STARLINK-2235
1 28581C 21041AE  21325.14795394 -.01117831  00000-0 -33217-1 0  3253
2 28581  53.0584 303.6239 0001187  83.3513  19.8598 15.35329000    18
